CUBEBUG-2 (LO-74)       
1 39440U 13066AA  26166.85743361  .00004009  00000+0  37158-3 0  9993
2 39440  97.8907 115.8299 0058470  33.3376 327.1504 14.93752168676799
FUNCUBE-1 (AO-73)       
1 39444U 13066AE  26166.86333262  .00005834  00000+0  36316-3 0  9995
2 39444  97.8273 138.2815 0035539 205.5766 154.3706 15.09476684679464
UWE-3                   
1 39446U 13066AG  26166.41095872  .00003615  00000+0  31229-3 0  9993
2 39446  97.8693 122.4726 0047855 327.0614  32.7628 14.97011844677317
UNISAT-6                
1 40012U 14033C   26166.92307165  .00002388  00000+0  25960-3 0  9997
2 40012  97.7876 319.6570 0046292  73.3647 287.2645 14.88241155645971
DUCHIFAT-1              
1 40021U 14033M   26166.42257015  .00087303  00000+0  90897-3 0  9991
2 40021  98.0462 225.3358 0003280 119.3803 240.7782 15.64281009655477
QB50P1                  
1 40025U 14033R   26166.83194276  .00006933  00000+0  34204-3 0  9999
2 40025  98.0960 177.8828 0007697 220.5150 139.5510 15.18243787652823
LILACSAT-2              
1 40908U 15049K   26166.91778164  .00014847  00000+0  25346-3 0  9990
2 40908  97.4643 203.7111 0005423 251.0348 109.0316 15.51409864595550
FOX-1A (AO-85)          
1 40967U 15058D   26166.74276637  .00002067  00000+0  19289-3 0  9994
2 40967  64.7762 283.4725 0130368  57.1508 304.2075 14.90963979113359
CAS-2T & KS-1Q          
1 41847U 16066G   26166.92466381  .00001561  00000+0  22563-3 0  9996
2 41847  98.3821 242.6754 0342755 133.2973 229.7354 14.44690843504612
RADFXSAT (FOX-1B)       
1 43017U 17073E   26166.88504000  .00006860  00000+0  30071-3 0  9992
2 43017  97.4704  34.1266 0149732 333.8046  25.5663 15.12702025465190
DIWATA-2B               
1 43678U 18084H   26166.90280462  .00002533  00000+0  20624-3 0  9990
2 43678  98.1175   3.0557 0012426 174.2466 185.8901 15.00448355416026
ES'HAIL 2               
1 43700U 18090A   26166.85739491  .00000145  00000+0  00000+0 0  9997
2 43700   0.0181  12.1606 0001590 112.3264 114.0956  1.00269965 27661
FOX-1CLIFF (AO-95)      
1 43770U 18099N   26166.89791561  .00009073  00000+0  34802-3 0  9993
2 43770  97.4384 227.1485 0008108   2.7648 357.3634 15.26689380413020
ITASAT                  
1 43786U 18099AE  26166.70422019  .00005791  00000+0  27911-3 0  9995
2 43786  97.4028 218.2452 0012261   5.4910 354.6457 15.19041217412681
JY1SAT (JO-97)          
1 43803U 18099AX  26166.72556711  .00014663  00000+0  45317-3 0  9992
2 43803  97.4131 229.5542 0004267 269.8171  90.2582 15.33614520413405
UWE-4                   
1 43880U 18111E   26166.72653099  .00028284  00000+0  57911-3 0  9996
2 43880  97.5856  95.0504 0005771 349.3719  10.7407 15.46049789410551
TIANYAN 01              
1 44881U 19093C   26166.96774972  .00001309  00000+0  15369-3 0  9998
2 44881  97.7539 239.2294 0015128  90.6122 269.6828 14.86520065351237
RS-44 & BREEZE-KM R/B   
1 44909U 19096E   26166.91065363  .00000013  00000+0  42678-6 0  9991
2 44909  82.5219 340.5534 0218111 147.1407 214.3476 12.79748871302182
SALSAT                  
1 46495U 20068K   26166.77190721  .00006667  00000+0  23385-3 0  9997
2 46495  97.8844 169.7502 0008124 314.2855  45.7717 15.29782498315143
XW-3 (CAS-9)            
1 50466U 21131B   26166.94390448  .00000335  00000+0  11724-3 0  9999
2 50466  98.4986 259.3401 0005367  99.5344 260.6451 14.41356068234939
GREENCUBE (IO-117)      
1 53109U 22080E   26164.29338770 -.00000003  00000+0  00000+0 0  9990
2 53109  70.1444 299.5995 0008910 290.4576  69.5127  6.42583230 91811
UMKA 1 (RS40S)          
1 57172U 23091G   26166.90958478  .00005673  00000+0  25977-3 0  9991
2 57172  97.5052 225.6116 0014209 121.6292 238.6332 15.20806079163818
CUBESX-HSE 3 (RS42S)    
1 57178U 23091N   26166.93218883  .00011389  00000+0  37968-3 0  9993
2 57178  97.5095 232.5034 0012049  98.6440 261.6167 15.31188111164236
MONITOR-3 (RS58S)       
1 57180U 23091Q   26166.95391107  .00008913  00000+0  33000-3 0  9991
2 57180  97.5086 230.3907 0013111 104.5400 255.7294 15.27821458164102
MONITOR-4 (RS57S)       
1 57182U 23091S   26166.93303708  .00009014  00000+0  33286-3 0  9990
2 57182  97.5080 230.3410 0013112 104.9940 255.2751 15.27905854164107
MONITOR-2 (RS39S)       
1 57184U 23091U   26166.92923535  .00004312  00000+0  20955-3 0  9992
2 57184  97.5074 225.2202 0012697 114.8645 245.3910 15.18900665163766
SVYATOBOR 1 (RS60S)     
1 57187U 23091X   26166.94505378  .00007503  00000+0  28895-3 0  9994
2 57187  97.5092 230.7551 0010889  98.0523 262.1951 15.26597448164129
VIZARD-METEO (RS38S)    
1 57189U 23091Z   26166.90984580  .00013998  00000+0  40111-3 0  9998
2 57189  97.5096 236.3690 0008337  81.5789 278.6399 15.35992407164499
POLYTECH-UNIVERSE 3 (R*)
1 57191U 23091AB  26166.89073385  .00004471  00000+0  21558-3 0  9991
2 57191  97.5049 224.6865 0016792 130.8956 229.3737 15.19102854163750
UTMN 2 (RS27S)          
1 57203U 23091AP  26166.95046118  .00010977  00000+0  35700-3 0  9998
2 57203  97.5091 234.1542 0009319  87.4624 272.7684 15.32026265164351
