OBJECT_NAME,OBJECT_ID,EPOCH,MEAN_MOTION,ECCENTRICITY,INCLINATION,RA_OF_ASC_NODE,ARG_OF_PERICENTER,MEAN_ANOMALY,EPHEMERIS_TYPE,CLASSIFICATION_TYPE,NORAD_CAT_ID,ELEMENT_SET_NO,REV_AT_EPOCH,BSTAR,MEAN_MOTION_DOT,MEAN_MOTION_DDOT
CUBEBUG-2 (LO-74),2013-066AA,2026-06-15T20:34:42.263904,14.93752168,.00584709,97.8907,115.8299,33.3376,327.1504,0,U,39440,999,67679,.37157935E-3,.4009E-4,0
FUNCUBE-1 (AO-73),2013-066AE,2026-06-15T20:43:11.938368,15.09476684,.0035539,97.8273,138.2815,205.5766,154.3706,0,U,39444,999,67946,.36315864E-3,.5834E-4,0
UWE-3,2013-066AG,2026-06-15T09:51:46.833408,14.97011844,.00478551,97.8693,122.4726,327.0614,32.7628,0,U,39446,999,67731,.31228687E-3,.3615E-4,0
UNISAT-6,2014-033C,2026-06-15T22:09:13.390560,14.88241155,.00462924,97.7876,319.6570,73.3647,287.2645,0,U,40012,999,64597,.25960333E-3,.2388E-4,0
DUCHIFAT-1,2014-033M,2026-06-15T10:08:30.060960,15.64281009,.000328,98.0462,225.3358,119.3803,240.7782,0,U,40021,999,65547,.90896671E-3,.87303E-3,0
QB50P1,2014-033R,2026-06-15T19:57:59.854464,15.18243787,.00076976,98.0960,177.8828,220.5150,139.5510,0,U,40025,999,65282,.34203683E-3,.6933E-4,0
LILACSAT-2,2015-049K,2026-06-15T22:01:36.333696,15.51409864,.00054231,97.4643,203.7111,251.0348,109.0316,0,U,40908,999,59555,.25346041E-3,.14847E-3,0
FOX-1A (AO-85),2015-058D,2026-06-15T17:49:35.014368,14.90963979,.01303689,64.7762,283.4725,57.1508,304.2075,0,U,40967,999,11335,.19289249E-3,.2067E-4,0
CAS-2T & KS-1Q,2016-066G,2026-06-15T22:11:30.953184,14.44690843,.03427551,98.3821,242.6754,133.2973,229.7354,0,U,41847,999,50461,.22563446E-3,.1561E-4,0
RADFXSAT (FOX-1B),2017-073E,2026-06-15T21:14:27.456000,15.12702025,.0149732,97.4704,34.1266,333.8046,25.5663,0,U,43017,999,46519,.30071287E-3,.686E-4,0
DIWATA-2B,2018-084H,2026-06-15T21:40:02.319168,15.00448355,.0012426,98.1175,3.0557,174.2466,185.8901,0,U,43678,999,41602,.2062424E-3,.2533E-4,0
ES'HAIL 2,2018-090A,2026-06-15T20:34:38.920224,1.00269965,.00015905,0.0181,12.1606,112.3264,114.0956,0,U,43700,999,2766,0,.145E-5,0
FOX-1CLIFF (AO-95),2018-099N,2026-06-15T21:32:59.908704,15.26689380,.00081083,97.4384,227.1485,2.7648,357.3634,0,U,43770,999,41302,.34802335E-3,.9073E-4,0
ITASAT,2018-099AE,2026-06-15T16:54:04.624416,15.19041217,.0012261,97.4028,218.2452,5.4910,354.6457,0,U,43786,999,41268,.27910689E-3,.5791E-4,0
JY1SAT (JO-97),2018-099AX,2026-06-15T17:24:48.998304,15.33614520,.00042677,97.4131,229.5542,269.8171,90.2582,0,U,43803,999,41340,.45317451E-3,.14663E-3,0
UWE-4,2018-111E,2026-06-15T17:26:12.277536,15.46049789,.00057718,97.5856,95.0504,349.3719,10.7407,0,U,43880,999,41055,.57911091E-3,.28284E-3,0
TIANYAN 01,2019-093C,2026-06-15T23:13:33.575808,14.86520065,.00151285,97.7539,239.2294,90.6122,269.6828,0,U,44881,999,35123,.15369319E-3,.1309E-4,0
RS-44 & BREEZE-KM R/B,2019-096E,2026-06-15T21:51:20.473632,12.79748871,.02181119,82.5219,340.5534,147.1407,214.3476,0,U,44909,999,30218,.426784E-6,.13E-6,0
SALSAT,2020-068K,2026-06-15T18:31:32.782944,15.29782498,.00081243,97.8844,169.7502,314.2855,45.7717,0,U,46495,999,31514,.23384968E-3,.6667E-4,0
XW-3 (CAS-9),2021-131B,2026-06-15T22:39:13.347072,14.41356068,.00053675,98.4986,259.3401,99.5344,260.6451,0,U,50466,999,23493,.11724441E-3,.335E-5,0
GREENCUBE (IO-117),2022-080E,2026-06-13T07:02:28.697280,6.42583230,.00089108,70.1444,299.5995,290.4576,69.5127,0,U,53109,999,9181,0,-.3E-7,0
UMKA 1 (RS40S),2023-091G,2026-06-15T21:49:48.124992,15.20806079,.00142098,97.5052,225.6116,121.6292,238.6332,0,U,57172,999,16381,.25977357E-3,.5673E-4,0
CUBESX-HSE 3 (RS42S),2023-091N,2026-06-15T22:22:21.114912,15.31188111,.00120496,97.5095,232.5034,98.6440,261.6167,0,U,57178,999,16423,.37967908E-3,.11389E-3,0
MONITOR-3 (RS58S),2023-091Q,2026-06-15T22:53:37.916448,15.27821458,.00131116,97.5086,230.3907,104.5400,255.7294,0,U,57180,999,16410,.33000048E-3,.8913E-4,0
MONITOR-4 (RS57S),2023-091S,2026-06-15T22:23:34.403712,15.27905854,.00131124,97.5080,230.3410,104.9940,255.2751,0,U,57182,999,16410,.33285706E-3,.9014E-4,0
MONITOR-2 (RS39S),2023-091U,2026-06-15T22:18:05.934240,15.18900665,.00126975,97.5074,225.2202,114.8645,245.3910,0,U,57184,999,16376,.20954669E-3,.4312E-4,0
SVYATOBOR 1 (RS60S),2023-091X,2026-06-15T22:40:52.646592,15.26597448,.00108897,97.5092,230.7551,98.0523,262.1951,0,U,57187,999,16412,.28895137E-3,.7503E-4,0
VIZARD-METEO (RS38S),2023-091Z,2026-06-15T21:50:10.677120,15.35992407,.00083373,97.5096,236.3690,81.5789,278.6399,0,U,57189,999,16449,.40111314E-3,.13998E-3,0
POLYTECH-UNIVERSE 3 (RS46S),2023-091AB,2026-06-15T21:22:39.404640,15.19102854,.00167921,97.5049,224.6865,130.8956,229.3737,0,U,57191,999,16375,.21558386E-3,.4471E-4,0
UTMN 2 (RS27S),2023-091AP,2026-06-15T22:48:39.845952,15.32026265,.00093193,97.5091,234.1542,87.4624,272.7684,0,U,57203,999,16435,.35700302E-3,.10977E-3,0
